#dP2024  7 20  6  0  0.00000000      96 __u+U IGS20 EXT  IAC
## 2323 540000.00000000   900.00000000 60511 0.2500000000000
+   54   G02G03G04G05G06G07G08G09G10G11G12G13G14G15G16G17G18
+        G19G20G21G22G23G24G25G26G27G28G29G30G31G32R01R02R03
+        R04R05R07R08R09R11R12R13R14R15R16R17R18R19R20R21R22
+        R24R25R26  0  0  0  0  0  0  0  0  0  0  0  0  0  0
+          0  0  0  0  0  0  0  0  0  0  0  0  0  0  0  0  0
++         8  8  8  8  8  7  8  8 10  7  7  8  7  7  9  7  7
++         9  9  7  7  9  8  8  8  7  9  9  7  8  8  9  8  9
++         8  7  8  9  9  7  7  8  8  8  9  7  8  8  9  8  7
++         8  9  8  0  0  0  0  0  0  0  0  0  0  0  0  0  0
++         0  0  0  0  0  0  0  0  0  0  0  0  0  0  0  0  0
%c M  cc GPS ccc cccc cccc cccc cccc ccccc ccccc ccccc ccccc
%c cc cc ccc ccc cccc cccc cccc cccc ccccc ccccc ccccc ccccc
%f  0.0000000  0.000000000  0.00000000000  0.000000000000000
%f  0.0000000  0.000000000  0.00000000000  0.000000000000000
%i    0    0    0    0      0      0      0      0         0
%i    0    0    0    0      0      0      0      0         0
/* IAC                                ULTRA-RAPID PREDICTION
/* S/V CLOCKS ARE ALIGNED TO GNSS TIME                      
/* G:C1WC2W R:C1PC2P E:C1XC5X C:C2IC6I J:C1CC2S             
/* PCV:IGS20_2317 OL/AL:FES2004  NONE     YN ORB:CoN CLK:CoN
*  2024 07 21  3 30  0.00000000
PG02 -12491.038153 -13286.713614 -18947.618738   -395.010620
PG03 -12847.462532 -23002.405105   3667.874236    466.959379
PG04  -6293.216340 -15299.005580  20765.667643    407.996819
PG05   3425.523662  23699.890808  11219.991867   -180.455559
PG06 -22671.737746   5759.498726  12742.896458    148.968722
PG07 -25386.078977  -6788.073893   5814.654937    -65.925380
PG08   2397.328128 -22017.474433 -14448.359120    283.092563
PG09 -15315.827971  -4001.249069  21248.405136    281.465627
PG10  14301.330578  -3620.115179 -21897.581960    -71.571248
PG11 -10350.775979  12952.776577  20760.740493   -708.462914
PG12   9844.059528  24659.988527   1052.035057   -523.945244
PG13 -11965.853984  21689.644063  -9463.107127    665.885556
PG14 -16484.065587   -401.551007 -20819.164803    453.661299
PG15    749.081542  22344.639002 -14707.724572    183.431532
PG16   2270.149248 -22302.577322  13553.124485   -230.922505
PG17 -20293.468050   9946.575564 -13667.505036    673.251015
PG18  25579.825991   6131.325084   4436.657397   -638.657861
PG19 -20159.725799  15689.661844  -6600.937960    513.371083
PG20  -3508.475074  18525.658610  18827.520421    372.542464
PG21  -7170.792631 -14573.151798 -20773.870880    107.613451
PG22 -12720.612664   8696.594971 -21246.797088    -42.039806
PG23  17614.738965   9264.778572 -17666.502626    278.627944
PG24  10189.630724  14877.192402 -20048.707249   -483.938593
PG25  16498.277655  18236.796521  10025.393743    498.700074
PG26  10496.393377 -12747.465279  20587.781232    116.121863
PG27  11686.568874 -23025.539688  -5460.025070    -31.586190
PG28  23847.133378  -5535.619651  10293.116068   -339.871719
PG29  12558.647759   8283.611639  21844.755465   -588.489295
PG30 -26158.257098   1097.014331  -5095.835446   -354.225048
PG31  15676.731231 -11108.157902  18281.997697   -226.596130
PG32  19553.303854 -12225.429796 -12785.665983   -611.032538
PR01    489.089914 -23423.561536  10104.500458     92.021331
PR02  -7411.900228 -11191.482707  21718.579626    -23.805758
PR03 -12200.393562   7542.366170  21152.756457    104.118805
PR04 -10239.420913  21506.130934   9173.520328    246.138191
PR05  -2929.243934  24132.359734  -7757.911547    134.843359
PR07  12206.370700  -8174.642481 -20800.519419     87.096558
PR08   9965.243514 -21726.361460  -8802.001022     -6.101015
PR09  19519.493993  16115.322105   2790.745525    198.856130
PR11   7181.466732  -8295.176040  23042.440801     17.536210
PR12  -9387.849202 -18836.841076  14435.645150     42.694146
PR13 -18497.085726 -17564.664127    -84.495304    -49.609494
PR14 -17614.379855  -4901.240665 -17779.822776     26.721696
PR15  -5955.354097   9578.939182 -22852.573820     77.665007
PR16   9386.671102  18664.487059 -14591.768257     27.556805
PR17 -24762.119162   5395.835868  -2660.280714    106.454610
PR18 -18755.384951  11033.348701  13355.727704    152.994303
PR19  -5311.948715  11352.471442  22209.424191   -284.632350
PR20  16546.964766   4922.796437  18768.537125   -116.451734
PR21  24839.250293  -4984.357093   3120.272673   -119.258869
PR22  18081.844978 -11041.683778 -14177.191230     84.785718
PR24 -17291.764654  -4259.248794 -18239.061624    -64.563933
PR25  25003.886938  -4561.766849   2321.816443    -97.456491
PR26  10281.258879 -21023.634928 -10156.698212      5.408653
*  2024 07 21  3 45  0.00000000
PG02 -10172.260475 -13417.729269 -20145.837018   -395.003996
PG03 -12806.318665 -23323.748685    786.123222    466.973972
PG04  -4856.156640 -17114.847366  19693.979514    408.003767
PG05   2559.810316  22524.289093  13590.766038   -180.456694
PG06 -23955.743488   5511.166968  10257.903241    148.947943
PG07 -24625.452883  -6963.842607   8466.925312    -65.918817
PG08   3411.280706 -23182.349242 -12194.682948    283.106886
PG09 -14014.086162  -6103.081780  21637.100936    281.479289
PG10  15384.030464  -1349.617354 -21449.600587    -71.580256
PG11 -12633.672835  12593.215533  19683.877981   -708.468845
PG12   9608.338917  24741.662399  -1802.682255   -523.947972
PG13 -12737.638642  22215.226307  -6776.534211    665.887755
PG14 -17382.526235  -2564.642957 -19936.628002    453.669271
PG15   -113.210753  23592.009342 -12525.911292    183.435441
PG16   3102.628145 -20757.359933  15669.244603   -230.913009
PG17 -19371.082751   8457.160839 -15767.500995    673.243790
PG18  24905.823689   6265.945306   7204.350255   -638.661329
PG19 -19771.094390  14842.692636  -9295.581904    513.375901
PG20  -4905.061833  16807.252391  20076.779467    372.542097
PG21  -4686.774479 -14643.684344 -21320.468490    107.611269
PG22 -13633.910500   6333.960906 -21483.785916    -42.043858
PG23  18391.906826  11010.750373 -15793.456237    278.635931
PG24   7933.767947  15021.779511 -20923.087318   -483.939892
PG25  16746.474225  19274.010162   7450.000699    498.700356
PG26  11801.556054 -10694.841843  21074.255011    116.115540
PG27  12159.241076 -23235.642018  -2627.680778    -31.586935
PG28  24868.176586  -5265.637469   7692.824143   -339.885866
PG29  11000.685985  10247.897483  21840.593103   -588.487583
PG30 -26577.076372    763.340976  -2350.034662   -354.219126
PG31  17680.186468 -10777.521283  16630.702287   -226.595857
PG32  18831.526072 -10750.622748 -14987.395588   -611.030602
PR01    557.892595 -24493.576482   7126.797620     92.022397
PR02  -6881.418294 -13729.038505  20388.894003    -23.805917
PR03 -11554.082073   4954.213807  22249.094220    104.119376
PR04  -9780.245566  20273.345192  12040.607692    246.139606
PR05  -2936.775719  24919.263626  -4649.771624    134.844128
PR07  11561.254587  -5602.252628 -21989.050076     87.097327
PR08   9541.442315 -20515.737220 -11687.765559     -6.101486
PR09  19683.995630  16146.808954   -394.505192    198.858088
PR11   9287.652207  -6404.247874  22890.639167     17.535080
PR12  -8034.422468 -17470.446874  16785.118278     42.694571
PR13 -18442.349985 -17344.173541   3111.564848    -49.609936
PR14 -19201.247366  -6218.872002 -15594.818928     26.721732
PR15  -8042.662753   7666.774205 -22935.402533     77.664669
PR16   8013.758797  17275.608881 -16933.591838     27.557138
PR17 -24205.090786   5418.876595  -5840.634015    106.457658
PR18 -20122.540802  11617.696358  10583.548915    152.996048
PR19  -7880.343085  12097.854692  21020.652262   -284.633596
PR20  14166.130787   5410.928674  20504.856036   -116.452213
PR21  24225.101807  -5011.950775   6288.149956   -119.261728
PR22  19586.992721 -11566.978281 -11512.369525     84.779731
PR24 -15005.150307  -4868.243117 -20024.524270    -64.565252
PR25  24501.104344  -4582.202209   5485.732267    -97.458123
PR26   9831.877927 -19660.440268 -12942.498077      5.410472
EOF
